NAVSTAR 77 (USA 289)    
1 43873U 18109A   23214.12375122  .00000002  00000+0  00000+0 0  9999
2 43873  55.1845 133.6785 0025121 192.6826 251.7873  2.00567188 33964
